PROBA-1                 
1 26958U 01049B   23007.41041365  .00002992  00000+0  25181-3 0  9991
2 26958  97.8515 332.6331 0071307  24.5786 335.8806 14.97072857154988
BIRD 2                  
1 26959U 01049C   23007.29152216  .00030700  00000+0  51849-3 0  9994
2 26959  97.7661 118.8045 0005466   4.0491 356.0803 15.51565041484706
CUTE-1 (CO-55)          
1 27844U 03031E   23007.47744893  .00000428  00000+0  21097-3 0  9995
2 27844  98.6791  17.0993 0009064 227.1796 132.8621 14.22578289 12913
CUBESAT XI-IV (CO-57)   
1 27848U 03031J   23006.30893742  .00000337  00000+0  17195-3 0  9991
2 27848  98.6831  16.4191 0008759 246.9784 113.0470 14.22116439 12548
GENESIS 1               
1 29252U 06029A   23007.27274956  .00010754  00000+0  45182-3 0  9990
2 29252  64.5219 120.8309 0045488 232.5078 127.1908 15.22910561909983
FALCONSAT-3             
1 30776U 07006E   23007.29398996  .00501200  99881-4  12781-2 0  9991
2 30776  35.4238 340.8907 0009466 219.4199 140.5858 15.94245905881542
GENESIS 2               
1 31789U 07028A   23007.43204551  .00008738  00000+0  37502-3 0  9996
2 31789  64.4944 164.0226 0059605 284.3271  75.1240 15.21692999856971
APRIZESAT 4             
1 35684U 09041D   23006.83633814  .00000897  00000+0  12424-3 0  9996
2 35684  98.3003  32.3734 0047718  60.0104 300.5830 14.79907560725147
APRIZESAT 3             
1 35686U 09041F   23007.50624746  .00001929  00000+0  20552-3 0  9995
2 35686  98.1013 103.6934 0070335 238.8085 120.6224 14.88376714729004
PROBA-2                 
1 36037U 09059B   23007.01721107  .00000391  00000+0  10463-3 0  9992
2 36037  98.2205 194.8091 0013017 196.6185 163.4587 14.53363706698822
APRIZESAT 5             
1 37792U 11044E   23006.62319569  .00000919  00000+0  13775-3 0  9994
2 37792  98.2978 252.7146 0058733  76.7004 284.0745 14.76039591612969
APRIZESAT 6             
1 37793U 11044F   23007.46618149  .00000888  00000+0  14436-3 0  9994
2 37793  98.3749 231.1963 0047361 128.1311 350.9854 14.73023180612040
PROBA-V                 
1 39159U 13021A   23007.05861588  .00000057  00000+0  43164-4 0  9990
2 39159  98.3360  37.4575 0003658 200.6669 159.4363 14.23069143502281
STPSAT-3                
1 39380U 13064A   23007.02295143  .00100394  00000+0  10121-2 0  9998
2 39380  40.4948 238.9287 0012892 312.9540  47.0202 15.64158956510921
APRIZESAT 7             
1 39416U 13066A   23007.36670230  .00001714  00000+0  20470-3 0  9996
2 39416  97.5983 342.6265 0041616  47.6620 312.8109 14.84861817494321
APRIZESAT 8             
1 39425U 13066K   23006.84747488  .00001105  00000+0  14253-3 0  9994
2 39425  97.6559 333.9993 0052668  94.2728 266.4506 14.81964080493088
BUGSAT-1 (TITA)         
1 40014U 14033E   23007.25096155  .00004155  00000+0  35655-3 0  9996
2 40014  98.1448  19.1497 0032037  83.3980 277.0897 14.97690000466633
SAUDISAT 4              
1 40016U 14033G   23007.26654237  .00001024  00000+0  15396-3 0  9992
2 40016  97.6339 195.8913 0047390 198.5343 161.4143 14.75780042460459
APRIZESAT 9             
1 40018U 14033J   23006.67396014  .00000772  00000+0  13073-3 0  9993
2 40018  97.7306 171.6086 0069398 281.3559  77.9857 14.70488210458515
APRIZESAT 10            
1 40019U 14033K   23007.37933061  .00000640  00000+0  11577-3 0  9992
2 40019  97.7905 162.4172 0082859 326.5139  33.0843 14.67514770457882
TDS 1                   
1 40076U 14037H   23007.39268954  .00004025  00000+0  45964-3 0  9991
2 40076  98.3645 256.0305 0007562 124.2177 235.9755 14.86666846460077
TIANTUO 2               
1 40144U 14053B   23007.45804671  .00010073  00000+0  24907-3 0  9998
2 40144  97.1784  88.4876 0010061 172.5358 244.2633 15.40604147466474
TECHNOSAT               
1 42829U 17042E   23007.28258976  .00002229  00000+0  22191-3 0  9990
2 42829  97.3971 214.3398 0015057  48.8785 311.3732 14.92483603298482
FLYING LAPTOP           
1 42831U 17042G   23007.14317120  .00002466  00000+0  24609-3 0  9994
2 42831  97.3997 214.5507 0014946  50.1730 310.0777 14.92288947298466
HAWK-A                  
1 43765U 18099H   23007.21940831  .00002807  00000+0  24281-3 0  9998
2 43765  97.5969  74.8997 0013413 312.1141  47.8940 14.97906848223635
HAWK-B                  
1 43794U 18099AN  23007.15298582  .00002509  00000+0  21758-3 0  9997
2 43794  97.5968  74.8347 0013513 312.7064  47.3020 14.97908099223618
HAWK-C                  
1 43799U 18099AT  23007.15277561  .00002489  00000+0  21583-3 0  9999
2 43799  97.5965  74.7390 0013397 312.3843  47.6245 14.97907414224363
SALSAT                  
1 46495U 20068K   23007.07944377  .00004185  00000+0  29351-3 0  9997
2 46495  97.7525 313.8115 0014999 311.3523  48.6413 15.05655969124810
